{"type": "FeatureCollection", "features": [{"type": "Feature", "properties": {"norad_id": 26766, "name": "INTELSAT 10 (IS-10)", "group": "intelsat", "lat": 8.07839993226433, "lon": 130.8277753088722, "alt_km": 36150.46660001997, "timestamp": "2025-12-02T15:49:06.850424+00:00", "meta": {"OBJECT_NAME": "INTELSAT 10 (IS-10)", "OBJECT_ID": "2001-019A", "EPOCH": "2025-12-01T11:39:24.752160", "MEAN_MOTION": 0.99077519, "ECCENTRICITY": 0.00076044, "INCLINATION": 8.6009, "RA_OF_ASC_NODE": 61.2665, "ARG_OF_PERICENTER": 217.709, "MEAN_ANOMALY": 153.5892, "EPHEMERIS_TYPE": 0, "CLASSIFICATION_TYPE": "U", "NORAD_CAT_ID": 26766, "ELEMENT_SET_NO": 999, "REV_AT_EPOCH": 4362, "BSTAR": 0, "MEAN_MOTION_DOT": -9.5e-07, "MEAN_MOTION_DDOT": 0}, "tle": {"line1": "1 26766U 01019A   25335.48570315 -.00000095  00000+0  00000+0 0  9992", "line2": "2 26766   8.6009  61.2665 0007604 217.7090 153.5892  0.99077519 43626"}}, "geometry": {"type": "Point", "coordinates": [130.8277753088722, 8.07839993226433]}}, {"type": "Feature", "properties": {"norad_id": 26900, "name": "INTELSAT 902 (IS-902)", "group": "intelsat", "lat": -0.4842189436281265, "lon": -101.11911897630075, "alt_km": 35768.662127849704, "timestamp": "2025-12-02T15:49:06.850448+00:00", "meta": {"OBJECT_NAME": "INTELSAT 902 (IS-902)", "OBJECT_ID": "2001-039A", "EPOCH": "2025-12-01T16:59:59.311968", "MEAN_MOTION": 1.00270327, "ECCENTRICITY": 0.00043097, "INCLINATION": 5.6187, "RA_OF_ASC_NODE": 74.2002, "ARG_OF_PERICENTER": 175.119, "MEAN_ANOMALY": 26.3816, "EPHEMERIS_TYPE": 0, "CLASSIFICATION_TYPE": "U", "NORAD_CAT_ID": 26900, "ELEMENT_SET_NO": 999, "REV_AT_EPOCH": 8871, "BSTAR": 0, "MEAN_MOTION_DOT": -2.63e-06, "MEAN_MOTION_DDOT": 0}, "tle": {"line1": "1 26900U 01039A   25335.70832537 -.00000263  00000+0  00000+0 0  9993", "line2": "2 26900   5.6187  74.2002 0004309 175.1190  26.3816  1.00270327 88713"}}, "geometry": {"type": "Point", "coordinates": [-101.11911897630075, -0.4842189436281265]}}, {"type": "Feature", "properties": {"norad_id": 27380, "name": "INTELSAT 904 (IS-904)", "group": "intelsat", "lat": -2.830588338930971, "lon": -82.60810754123341, "alt_km": 35780.82013726563, "timestamp": "2025-12-02T15:49:06.850464+00:00", "meta": {"OBJECT_NAME": "INTELSAT 904 (IS-904)", "OBJECT_ID": "2002-007A", "EPOCH": "2025-12-02T03:21:43.155648", "MEAN_MOTION": 1.0026967, "ECCENTRICITY": 0.0001502, "INCLINATION": 6.4264, "RA_OF_ASC_NODE": 71.5525, "ARG_OF_PERICENTER": 197.1555, "MEAN_ANOMALY": 181.4839, "EPHEMERIS_TYPE": 0, "CLASSIFICATION_TYPE": "U", "NORAD_CAT_ID": 27380, "ELEMENT_SET_NO": 999, "REV_AT_EPOCH": 4979, "BSTAR": 0, "MEAN_MOTION_DOT": -2.07e-06, "MEAN_MOTION_DDOT": 0}, "tle": {"line1": "1 27380U 02007A   25336.14008282 -.00000207  00000+0  00000+0 0  9991", "line2": "2 27380   6.4264  71.5525 0001502 197.1555 181.4839  1.00269670 49794"}}, "geometry": {"type": "Point", "coordinates": [-82.60810754123341, -2.830588338930971]}}, {"type": "Feature", "properties": {"norad_id": 27426, "name": "DIRECTV 5 (TEMPO 1)", "group": "intelsat", "lat": 3.724250088839779, "lon": -161.06986412594767, "alt_km": 35779.472924222915, "timestamp": "2025-12-02T15:49:06.850476+00:00", "meta": {"OBJECT_NAME": "DIRECTV 5 (TEMPO 1)", "OBJECT_ID": "2002-023A", "EPOCH": "2025-12-02T06:24:44.894592", "MEAN_MOTION": 1.00271141, "ECCENTRICITY": 0.00036927, "INCLINATION": 4.3732, "RA_OF_ASC_NODE": 77.7757, "ARG_OF_PERICENTER": 187.4752, "MEAN_ANOMALY": 152.1876, "EPHEMERIS_TYPE": 0, "CLASSIFICATION_TYPE": "U", "NORAD_CAT_ID": 27426, "ELEMENT_SET_NO": 999, "REV_AT_EPOCH": 8614, "BSTAR": 0, "MEAN_MOTION_DOT": -3.7e-07, "MEAN_MOTION_DDOT": 0}, "tle": {"line1": "1 27426U 02023A   25336.26718628 -.00000037  00000+0  00000+0 0  9996", "line2": "2 27426   4.3732  77.7757 0003692 187.4752 152.1876  1.00271141 86142"}}, "geometry": {"type": "Point", "coordinates": [-161.06986412594767, 3.724250088839779]}}, {"type": "Feature", "properties": {"norad_id": 27438, "name": "INTELSAT 905 (IS-905)", "group": "intelsat", "lat": 6.159160477004735, "lon": 171.85185734529955, "alt_km": 35783.976276893314, "timestamp": "2025-12-02T15:49:06.850489+00:00", "meta": {"OBJECT_NAME": "INTELSAT 905 (IS-905)", "OBJECT_ID": "2002-027A", "EPOCH": "2025-12-01T11:26:53.712384", "MEAN_MOTION": 1.00272635, "ECCENTRICITY": 0.00030034, "INCLINATION": 6.255, "RA_OF_ASC_NODE": 72.1839, "ARG_OF_PERICENTER": 185.4215, "MEAN_ANOMALY": 207.5171, "EPHEMERIS_TYPE": 0, "CLASSIFICATION_TYPE": "U", "NORAD_CAT_ID": 27438, "ELEMENT_SET_NO": 999, "REV_AT_EPOCH": 4938, "BSTAR": 0, "MEAN_MOTION_DOT": 1.14e-06, "MEAN_MOTION_DDOT": 0}, "tle": {"line1": "1 27438U 02027A   25335.47701056  .00000114  00000+0  00000+0 0  9997", "line2": "2 27438   6.2550  72.1839 0003003 185.4215 207.5171  1.00272635 49389"}}, "geometry": {"type": "Point", "coordinates": [171.85185734529955, 6.159160477004735]}}, {"type": "Feature", "properties": {"norad_id": 27445, "name": "GALAXY 3C (G-3C)", "group": "intelsat", "lat": 2.3209431976286425, "lon": -145.78564475004563, "alt_km": 35781.74169140151, "timestamp": "2025-12-02T15:49:06.850501+00:00", "meta": {"OBJECT_NAME": "GALAXY 3C (G-3C)", "OBJECT_ID": "2002-030A", "EPOCH": "2025-12-02T06:29:06.976896", "MEAN_MOTION": 1.00270422, "ECCENTRICITY": 0.00013106, "INCLINATION": 3.2361, "RA_OF_ASC_NODE": 80.6132, "ARG_OF_PERICENTER": 97.0869, "MEAN_ANOMALY": 256.1013, "EPHEMERIS_TYPE": 0, "CLASSIFICATION_TYPE": "U", "NORAD_CAT_ID": 27445, "ELEMENT_SET_NO": 999, "REV_AT_EPOCH": 4451, "BSTAR": 0, "MEAN_MOTION_DOT": -1.32e-06, "MEAN_MOTION_DDOT": 0}, "tle": {"line1": "1 27445U 02030A   25336.27021964 -.00000132  00000+0  00000+0 0  9992", "line2": "2 27445   3.2361  80.6132 0001310  97.0869 256.1013  1.00270422 44513"}}, "geometry": {"type": "Point", "coordinates": [-145.78564475004563, 2.3209431976286425]}}, {"type": "Feature", "properties": {"norad_id": 27513, "name": "INTELSAT 906 (IS-906)", "group": "intelsat", "lat": -4.66831774867147, "lon": 13.3199780896229, "alt_km": 35793.902018956665, "timestamp": "2025-12-02T15:49:06.850514+00:00", "meta": {"OBJECT_NAME": "INTELSAT 906 (IS-906)", "OBJECT_ID": "2002-041A", "EPOCH": "2025-12-02T00:41:51.813024", "MEAN_MOTION": 1.00272894, "ECCENTRICITY": 0.00061114, "INCLINATION": 5.3019, "RA_OF_ASC_NODE": 75.3582, "ARG_OF_PERICENTER": 191.023, "MEAN_ANOMALY": 239.354, "EPHEMERIS_TYPE": 0, "CLASSIFICATION_TYPE": "U", "NORAD_CAT_ID": 27513, "ELEMENT_SET_NO": 999, "REV_AT_EPOCH": 8505, "BSTAR": 0, "MEAN_MOTION_DOT": 3.2e-07, "MEAN_MOTION_DDOT": 0}, "tle": {"line1": "1 27513U 02041A   25336.02907191  .00000032  00000+0  00000+0 0  9996", "line2": "2 27513   5.3019  75.3582 0006111 191.0230 239.3540  1.00272894 85050"}}, "geometry": {"type": "Point", "coordinates": [13.3199780896229, -4.66831774867147]}}, {"type": "Feature", "properties": {"norad_id": 27954, "name": "GALAXY 13 (HORIZONS-1)", "group": "intelsat", "lat": 0.8563665095440867, "lon": 158.97778714513913, "alt_km": 35785.331806997274, "timestamp": "2025-12-02T15:49:06.850526+00:00", "meta": {"OBJECT_NAME": "GALAXY 13 (HORIZONS-1)", "OBJECT_ID": "2003-044A", "EPOCH": "2025-12-02T06:13:23.482848", "MEAN_MOTION": 1.00272014, "ECCENTRICITY": 0.00020898, "INCLINATION": 0.9085, "RA_OF_ASC_NODE": 86.5976, "ARG_OF_PERICENTER": 158.9528, "MEAN_ANOMALY": 129.1546, "EPHEMERIS_TYPE": 0, "CLASSIFICATION_TYPE": "U", "NORAD_CAT_ID": 27954, "ELEMENT_SET_NO": 999, "REV_AT_EPOCH": 4459, "BSTAR": 0, "MEAN_MOTION_DOT": 1.53e-06, "MEAN_MOTION_DDOT": 0}, "tle": {"line1": "1 27954U 03044A   25336.25929957  .00000153  00000+0  00000+0 0  9992", "line2": "2 27954   0.9085  86.5976 0002089 158.9528 129.1546  1.00272014 44596"}}, "geometry": {"type": "Point", "coordinates": [158.97778714513913, 0.8563665095440867]}}, {"type": "Feature", "properties": {"norad_id": 28358, "name": "INTELSAT 10-02", "group": "intelsat", "lat": -0.019948518229031688, "lon": -51.969793253107284, "alt_km": 35781.559832783576, "timestamp": "2025-12-02T15:49:06.850538+00:00", "meta": {"OBJECT_NAME": "INTELSAT 10-02", "OBJECT_ID": "2004-022A", "EPOCH": "2025-12-02T05:13:06.758112", "MEAN_MOTION": 1.002726, "ECCENTRICITY": 0.00011785, "INCLINATION": 0.0378, "RA_OF_ASC_NODE": 83.9766, "ARG_OF_PERICENTER": 193.5908, "MEAN_ANOMALY": 231.0466, "EPHEMERIS_TYPE": 0, "CLASSIFICATION_TYPE": "U", "NORAD_CAT_ID": 28358, "ELEMENT_SET_NO": 999, "REV_AT_EPOCH": 7858, "BSTAR": 0, "MEAN_MOTION_DOT": 1e-07, "MEAN_MOTION_DDOT": 0}, "tle": {"line1": "1 28358U 04022A   25336.21743933  .00000010  00000+0  00000+0 0  9994", "line2": "2 28358   0.0378  83.9766 0001178 193.5908 231.0466  1.00272600 78585"}}, "geometry": {"type": "Point", "coordinates": [-51.969793253107284, -0.019948518229031688]}}, {"type": "Feature", "properties": {"norad_id": 28626, "name": "XM-3 (RHYTHM)", "group": "intelsat", "lat": 0.08412628506821576, "lon": 111.14950459623861, "alt_km": 36161.03456327133, "timestamp": "2025-12-02T15:49:06.850551+00:00", "meta": {"OBJECT_NAME": "XM-3 (RHYTHM)", "OBJECT_ID": "2005-008A", "EPOCH": "2025-12-01T16:19:10.718688", "MEAN_MOTION": 0.98955107, "ECCENTRICITY": 8.384e-05, "INCLINATION": 0.1433, "RA_OF_ASC_NODE": 80.6256, "ARG_OF_PERICENTER": 270.4663, "MEAN_ANOMALY": 131.2697, "EPHEMERIS_TYPE": 0, "CLASSIFICATION_TYPE": "U", "NORAD_CAT_ID": 28626, "ELEMENT_SET_NO": 999, "REV_AT_EPOCH": 4064, "BSTAR": 0, "MEAN_MOTION_DOT": -2.1e-06, "MEAN_MOTION_DDOT": 0}, "tle": {"line1": "1 28626U 05008A   25335.67998517 -.00000210  00000+0  00000+0 0  9999", "line2": "2 28626   0.1433  80.6256 0000838 270.4663 131.2697  0.98955107 40648"}}, "geometry": {"type": "Point", "coordinates": [111.14950459623861, 0.08412628506821576]}}]}